{
  "type": "FeatureCollection",
  "features": [
    {
      "type": "Feature",
      "properties": {
        "route_id": "RSL-RSC",
        "origin": "RSL",
        "destination": "RSC",
        "name": "Route from RSL to RSC"
      },
      "geometry": {
        "type": "LineString",
        "coordinates": [
          [
            -6.3390225,
            52.2554377
          ],
          [
            -6.3404184,
            52.2594108
          ],
          [
            -6.3335089,
            52.2609914
          ],
          [
            -6.3227607,
            52.2575738
          ],
          [
            -6.2771808,
            52.2361648
          ],
          [
            -6.240321,
            52.1986544
          ],
          [
            -6.2365726,
            52.1515303
          ],
          [
            -6.2320072,
            51.9872727
          ],
          [
            -6.2749588,
            51.59637
          ],
          [
            -6.3301822,
            51.2174496
          ],
          [
            -6.8185258,
            50.4186801
          ],
          [
            -7.1314586,
            50.1717313
          ],
          [
            -7.2007694,
            49.9407641
          ],
          [
            -6.8670023,
            49.6777949
          ],
          [
            -5.8113473,
            49.5668685
          ],
          [
            -4.8969458,
            49.4895966
          ],
          [
            -4.1901506,
            49.3351842
          ],
          [
            -3.9547098,
            49.1699361
          ],
          [
            -3.8877481,
            49.08717
          ],
          [
            -3.8692091,
            49.0049783
          ],
          [
            -3.8740794,
            48.9455174
          ],
          [
            -3.8828461,
            48.8577952
          ],
          [
            -3.9081719,
            48.7943089
          ],
          [
            -3.9294554,
            48.7605345
          ],
          [
            -3.9673844,
            48.7313522
          ],
          [
            -3.9754065,
            48.7270037
          ],
          [
            -3.9792984,
            48.7247508
          ]
        ]
      }
    }
  ]
}