{
  "type": "FeatureCollection",
  "features": [
    {
      "type": "Feature",
      "properties": {
        "route_id": "CCL-BAL",
        "origin": "CCL",
        "destination": "BAL",
        "name": "Route from CCL to BAL"
      },
      "geometry": {
        "type": "LineString",
        "coordinates": [
          [
            -9.5044513,
            51.4408854
          ],
          [
            -9.5018506,
            51.4506831
          ],
          [
            -9.4883906,
            51.4575135
          ],
          [
            -9.4790226,
            51.4585416
          ],
          [
            -9.468885,
            51.4581204
          ],
          [
            -9.4622486,
            51.4562828
          ],
          [
            -9.4490486,
            51.4482293
          ],
          [
            -9.4416782,
            51.4469555
          ],
          [
            -9.4339718,
            51.4477718
          ],
          [
            -9.4177846,
            51.4540017
          ],
          [
            -9.3930949,
            51.4655189
          ],
          [
            -9.3908254,
            51.4704111
          ],
          [
            -9.3895726,
            51.4770732
          ],
          [
            -9.3874589,
            51.4816318
          ],
          [
            -9.3806117,
            51.4838991
          ],
          [
            -9.3748459,
            51.482934
          ]
        ]
      }
    },
    {
      "type": "Feature",
      "properties": {
        "route_id": "BAL-SHK",
        "origin": "BAL",
        "destination": "SHK",
        "name": "Route from BAL to SHK"
      },
      "geometry": {
        "type": "LineString",
        "coordinates": [
          [
            -9.3758763,
            51.4833863
          ],
          [
            -9.3812238,
            51.4843143
          ],
          [
            -9.3858124,
            51.4831029
          ],
          [
            -9.3899082,
            51.4809529
          ],
          [
            -9.3919529,
            51.4778219
          ],
          [
            -9.3954323,
            51.4769713
          ],
          [
            -9.3986008,
            51.476808
          ]
        ]
      }
    },
    {
      "type": "Feature",
      "properties": {
        "route_id": "SHK-CCL",
        "origin": "SHK",
        "destination": "CCL",
        "name": "Route from SHK to CCL"
      },
      "geometry": {
        "type": "LineString",
        "coordinates": [
          [
            -9.3988375,
            51.4770076
          ],
          [
            -9.3940271,
            51.4763104
          ],
          [
            -9.3919552,
            51.4737197
          ],
          [
            -9.3923432,
            51.4703796
          ],
          [
            -9.3935152,
            51.4661514
          ],
          [
            -9.3955193,
            51.4643039
          ],
          [
            -9.4099375,
            51.4576192
          ],
          [
            -9.4340682,
            51.4475632
          ],
          [
            -9.4408302,
            51.4472218
          ],
          [
            -9.4486259,
            51.4485199
          ],
          [
            -9.458987,
            51.4542732
          ],
          [
            -9.4629901,
            51.4565347
          ],
          [
            -9.4709997,
            51.4583771
          ],
          [
            -9.4795045,
            51.4584432
          ],
          [
            -9.4884536,
            51.4575974
          ],
          [
            -9.5020078,
            51.4504571
          ],
          [
            -9.5034682,
            51.4446953
          ],
          [
            -9.5045719,
            51.4408877
          ]
        ]
      }
    }
  ]
}